*******************************************************************************
 Revised: Mar 12, 2021             Io  / (Jupiter)                          501

 SATELLITE PHYSICAL PROPERTIES:
  Mean radius (km)       = 1821.6   +- 0.5   Density (g cm^-3) = 3.528 +- 0.006
  GM (km^3/s^2)          = 5959.9155+- 0.004 Geometric Albedo  = 0.63  +- 0.02

 SATELLITE ORBIT (at J2000.0 epoch, 2000-Jan-1.5):
  Semi-major axis, a (km)~ 422,000           Orbital period    ~ 1.77 d
  Eccentricity, e        ~ 0.0               Rotational period = Synchronous
  Inclination, i  (deg)  ~ 0.04 
*******************************************************************************
 
 
*******************************************************************************
Ephemeris / WWW_USER Wed Apr  7 13:38:07 2021 Pasadena, USA      / Horizons
*******************************************************************************
Target body name: Io (501)                        {source: jup365_merged}
Center body name: Jupiter (599)                   {source: jup365_merged}
Center-site name: BODY CENTER
*******************************************************************************
Start time      : A.D. 1986-Apr-24 12:00:00.0000 TDB
Stop  time      : A.D. 2013-Sep-09 12:00:00.0000 TDB
Step-size       : 144000 minutes
*******************************************************************************
Center geodetic : 0.00000000,0.00000000,0.0000000 {W-lon(deg),Lat(deg),Alt(km)}
Center cylindric: 0.00000000,0.00000000,0.0000000 {W-lon(deg),Dxy(km),Dz(km)}
Center radii    : 71492.0 x 71492.0 x 66854.0 km  {Equator, meridian, pole}    
Output units    : AU-D
Output type     : LT CORRECTED cartesian states
Output format   : 2 (position and velocity)
Reference frame : Ecliptic of J2000.0
*******************************************************************************
JDTDB
   X     Y     Z
   VX    VY    VZ
*******************************************************************************
$$SOE
2450245.000000000 = A.D. 1996-Jun-10 12:00:00.0000 TDB 
 X = 3.565799966576457E-04 Y = 2.805281416854706E-03 Z = 1.057450864963932E-04
 VX=-9.892664540703833E-03 VY= 1.279743364106282E-03 VZ=-9.350541737611008E-05
2450345.000000000 = A.D. 1996-Sep-18 12:00:00.0000 TDB 
 X = 9.037794782896544E-05 Y =-2.809742042621018E-03 Z =-9.990239969041558E-05
 VX= 1.003065804950507E-02 VY= 2.826502052350701E-04 VZ= 1.521548891788002E-04
2450445.000000000 = A.D. 1996-Dec-27 12:00:00.0000 TDB 
 X =-4.896618584324641E-04 Y = 2.765923683271723E-03 Z = 9.297727671956679E-05
 VX=-9.885043290470685E-03 VY=-1.770372984656329E-03 VZ=-2.045923320363280E-04
2450545.000000000 = A.D. 1997-Apr-06 12:00:00.0000 TDB 
 X = 9.168766124060065E-04 Y =-2.673857289340315E-03 Z =-8.367441753954501E-05
 VX= 9.433164075528471E-03 VY= 3.256416914403316E-03 VZ= 2.532566792375955E-04
2450645.000000000 = A.D. 1997-Jul-15 12:00:00.0000 TDB 
 X =-1.348844090021520E-03 Y = 2.482510176799829E-03 Z = 7.053836575241706E-05
 VX=-8.792412898700997E-03 VY=-4.730247904350391E-03 VZ=-2.986466727180722E-04
2450745.000000000 = A.D. 1997-Oct-23 12:00:00.0000 TDB 
 X = 1.700309810373008E-03 Y =-2.235193766240278E-03 Z =-5.632643875633336E-05
 VX= 8.010219094487670E-03 VY= 6.060295148441175E-03 VZ= 3.369134443322443E-04
2450845.000000000 = A.D. 1998-Jan-31 12:00:00.0000 TDB 
 X =-2.007392544950915E-03 Y = 1.973445232800453E-03 Z = 4.203704580549764E-05
 VX=-7.001182185993912E-03 VY=-7.169124442444059E-03 VZ=-3.632519146304378E-04
2450945.000000000 = A.D. 1998-May-11 12:00:00.0000 TDB 
 X = 2.309930447088381E-03 Y =-1.635852994680971E-03 Z =-2.499316657924490E-05
 VX= 5.754074812442751E-03 VY= 8.136757660096935E-03 VZ= 3.804214831277271E-04
2451045.000000000 = A.D. 1998-Aug-19 12:00:00.0000 TDB 
 X =-2.538875053345212E-03 Y = 1.229062257903055E-03 Z = 6.435947750789523E-06
 VX=-4.395453332734930E-03 VY=-8.982435439284583E-03 VZ=-3.908170089516811E-04
2451145.000000000 = A.D. 1998-Nov-27 12:00:00.0000 TDB 
 X = 2.678921253020949E-03 Y =-8.404178093060247E-04 Z = 1.005295091851165E-05
 VX= 3.005602084450416E-03 VY= 9.587144360431423E-03 VZ= 3.911102806703155E-04
2451245.000000000 = A.D. 1999-Mar-07 12:00:00.0000 TDB 
 X =-2.786162754429897E-03 Y = 4.407366508936840E-04 Z =-2.634419702672331E-05
 VX=-1.518423197996498E-03 VY=-9.883996960202307E-03 VZ=-3.784534301639995E-04
2451345.000000000 = A.D. 1999-Jun-15 12:00:00.0000 TDB 
 X = 2.830130134163351E-03 Y = 2.436170408209599E-05 Z = 4.387329463285951E-05
 VX=-8.075373462776632E-05 VY= 9.966512869403515E-03 VZ= 3.556889812352374E-04
2451445.000000000 = A.D. 1999-Sep-23 12:00:00.0000 TDB 
 X =-2.774337013048032E-03 Y =-4.734956206887780E-04 Z =-5.904706107390526E-05
 VX= 1.654786183594772E-03 VY=-9.885102268319445E-03 VZ=-3.275050354133548E-04
2451545.000000000 = A.D. 2000-Jan-01 12:00:00.0000 TDB 
 X = 2.672049233788620E-03 Y = 8.638348419977567E-04 Z = 7.127350337547759E-05
 VX=-3.116522570205966E-03 VY= 9.549606686285923E-03 VZ= 2.919276620727186E-04
2451645.000000000 = A.D. 2000-Apr-10 12:00:00.0000 TDB 
 X =-2.524480623141946E-03 Y =-1.267990460932972E-03 Z =-8.304026338378858E-05
 VX= 4.517866406697175E-03 VY=-8.904719951266234E-03 VZ=-2.467313564359263E-04
2451745.000000000 = A.D. 2000-Jul-19 12:00:00.0000 TDB 
 X = 2.278638129369083E-03 Y = 1.672122262243164E-03 Z = 9.325833995366123E-05
 VX=-5.887330884349271E-03 VY= 8.059543792632859E-03 VZ= 1.956602760126135E-04
2451845.000000000 = A.D. 2000-Oct-27 12:00:00.0000 TDB 
 X =-1.980959489475070E-03 Y =-1.990808104255204E-03 Z =-9.957737227738791E-05
 VX= 7.104717085097417E-03 VY=-7.100007961994051E-03 VZ=-1.434447372416206E-04
2451945.000000000 = A.D. 2001-Feb-04 12:00:00.0000 TDB 
 X = 1.678647214997503E-03 Y = 2.255160293555187E-03 Z = 1.039658294192554E-04
 VX=-8.072328424399571E-03 VY= 5.960363616602917E-03 VZ= 8.965929199157507E-05
2452045.000000000 = A.D. 2001-May-15 12:00:00.0000 TDB 
 X =-1.308326513652069E-03 Y =-2.506885339607282E-03 Z =-1.070329724421554E-04
 VX= 8.852376522399581E-03 VY=-4.598867671215730E-03 VZ=-3.129251909261545E-05
2452145.000000000 = A.D. 2001-Aug-23 12:00:00.0000 TDB 
 X = 8.712201056569991E-04 Y = 2.683139187789519E-03 Z = 1.066053107951487E-04
 VX=-9.498410259500503E-03 VY= 3.126706605577264E-03 VZ=-2.825320072423276E-05
2452245.000000000 = A.D. 2001-Dec-01 12:00:00.0000 TDB 
 X =-4.608899314423218E-04 Y =-2.767738084611117E-03 Z =-1.036531921045741E-04
 VX= 9.915517027225417E-03 VY=-1.662459312163490E-03 VZ= 8.409703987708628E-05
2452345.000000000 = A.D. 2002-Mar-11 12:00:00.0000 TDB 
 X = 5.525556714428071E-05 Y = 2.816445831220719E-03 Z = 9.964266668299279E-05
 VX=-1.001292572000499E-02 VY= 1.595511972921997E-04 VZ=-1.367404404072613E-04
2452445.000000000 = A.D. 2002-Jun-19 12:00:00.0000 TDB 
 X = 4.073522338058373E-04 Y =-2.799794763948351E-03 Z =-9.282176734281345E-05
 VX= 9.867795103570769E-03 VY= 1.426543005628329E-03 VZ= 1.891473514103661E-04
2452545.000000000 = A.D. 2002-Sep-27 12:00:00.0000 TDB 
 X =-8.524747319721808E-04 Y = 2.684112602234820E-03 Z = 8.284040799577369E-05
 VX=-9.561243661441558E-03 VY=-2.986779332683135E-03 VZ=-2.391739992609159E-04
2452645.000000000 = A.D. 2003-Jan-05 12:00:00.0000 TDB 
 X = 1.226935894027405E-03 Y =-2.524753717068659E-03 Z =-7.243131212763958E-05
 VX= 9.036275191108639E-03 VY= 4.396977999871329E-03 VZ= 2.813591859084163E-04
2452745.000000000 = A.D. 2003-Apr-15 12:00:00.0000 TDB 
 X =-1.600261833126413E-03 Y = 2.326630594151920E-03 Z = 6.063873580614223E-05
 VX=-8.213176281807054E-03 VY=-5.686768247979488E-03 VZ=-3.161893801343367E-04
2452845.000000000 = A.D. 2003-Jul-24 12:00:00.0000 TDB 
 X = 1.967843607810695E-03 Y =-2.032056108542032E-03 Z =-4.538704270006387E-05
 VX= 7.183071979043428E-03 VY= 6.917288448022699E-03 VZ= 3.465565382126005E-04
2452945.000000000 = A.D. 2003-Nov-01 12:00:00.0000 TDB 
 X =-2.248211824213942E-03 Y = 1.688950520069891E-03 Z = 2.948181259213135E-05
 VX=-6.054041676850715E-03 VY=-7.999303155589138E-03 VZ=-3.709631870569144E-04
2453045.000000000 = A.D. 2004-Feb-09 12:00:00.0000 TDB 
 X = 2.465608282662484E-03 Y =-1.350399000203452E-03 Z =-1.435793226578148E-05
 VX= 4.795858437101200E-03 VY= 8.814202935182550E-03 VZ= 3.842732870764648E-04
2453145.000000000 = A.D. 2004-May-19 12:00:00.0000 TDB 
 X =-2.662043453123081E-03 Y = 9.569437450518227E-04 Z =-2.623347376596333E-06
 VX=-3.349104800599557E-03 VY=-9.392592492906240E-03 VZ=-3.863407423840024E-04
2453245.000000000 = A.D. 2004-Aug-27 12:00:00.0000 TDB 
 X = 2.780360754172848E-03 Y =-4.995612266420715E-04 Z = 2.106520903357169E-05
 VX= 1.799475075723042E-03 VY= 9.822130078418692E-03 VZ= 3.814942515769876E-04
2453345.000000000 = A.D. 2004-Dec-05 12:00:00.0000 TDB 
 X =-2.807334781930816E-03 Y = 7.625947700977246E-05 Z =-3.713783753321022E-05
 VX=-2.829116198671742E-04 VY=-1.004060096587451E-02 VZ=-3.686545216917267E-04
2453445.000000000 = A.D. 2005-Mar-15 12:00:00.0000 TDB 
 X = 2.796468319576571E-03 Y = 3.294602904355976E-04 Z = 5.209030682599003E-05
 VX=-1.217587662545022E-03 VY= 9.943556007350517E-03 VZ= 3.441786437672260E-04
2453545.000000000 = A.D. 2005-Jun-23 12:00:00.0000 TDB 
 X =-2.720268393557665E-03 Y =-7.806605131873045E-04 Z =-6.783013611500115E-05
 VX= 2.762570121944643E-03 VY=-9.576741971143443E-03 VZ=-3.082559422538183E-04
2453645.000000000 = A.D. 2005-Oct-01 12:00:00.0000 TDB 
 X = 2.544923056033373E-03 Y = 1.211078248106853E-03 Z = 8.121419529272577E-05
 VX=-4.269490210715513E-03 VY= 9.052268814458479E-03 VZ= 2.665608087641037E-04
2453745.000000000 = A.D. 2006-Jan-09 12:00:00.0000 TDB 
 X =-2.332183049859180E-03 Y =-1.560644154566447E-03 Z =-9.105903418395556E-05
 VX= 5.601047262197936E-03 VY=-8.347142836227181E-03 VZ=-2.203038307107165E-04
2453845.000000000 = A.D. 2006-Apr-19 12:00:00.0000 TDB 
 X = 2.086120780236747E-03 Y = 1.898164370530326E-03 Z = 9.970782615514312E-05
 VX=-6.764306047454637E-03 VY= 7.366937754405759E-03 VZ= 1.661135726102787E-04
